[
  {
    "OBJECT_NAME": "STARLINK-1357",
    "OBJECT_ID": "20025AL",
    "EPOCH": "2025-11-11T05:06:09.695808",
    "MEAN_MOTION": 15.34340403,
    "ECCENTRICITY": 0.0009008,
    "INCLINATION": 53.0605,
    "RA_OF_ASC_NODE": 241.5134,
    "ARG_OF_PERICENTER": 50.7663,
    "MEAN_ANOMALY": 309.4137,
    "EPHEMERIS_TYPE": 0,
    "CLASSIFICATION_TYPE": "U",
    "NORAD_CAT_ID": 45565,
    "ELEMENT_SET_NO": 999,
    "REV_AT_EPOCH": 30775,
    "BSTAR": 0.0022317,
    "MEAN_MOTION_DOT": 0.00075732,
    "MEAN_MOTION_DDOT": 0.0,
    "TLE_LINE1": "1 45565U 20025AL  25315.21261222  .00075732  00000+0  22317-2 0  9998",
    "TLE_LINE2": "2 45565  53.0605 241.5134 0009008  50.7663 309.4137 15.34340403307756",
    "COMMENT": "Grouped by shell and plane from TLE"
  },
  {
    "OBJECT_NAME": "STARLINK-30936",
    "OBJECT_ID": "23192D",
    "EPOCH": "2025-11-11T04:37:00.872544",
    "MEAN_MOTION": 15.30199136,
    "ECCENTRICITY": 0.000157,
    "INCLINATION": 53.1608,
    "RA_OF_ASC_NODE": 243.1824,
    "ARG_OF_PERICENTER": 90.4348,
    "MEAN_ANOMALY": 269.6833,
    "EPHEMERIS_TYPE": 0,
    "CLASSIFICATION_TYPE": "U",
    "NORAD_CAT_ID": 58534,
    "ELEMENT_SET_NO": 999,
    "REV_AT_EPOCH": 10798,
    "BSTAR": 0.00013292000000000002,
    "MEAN_MOTION_DOT": 3.579e-05,
    "MEAN_MOTION_DDOT": 0.0,
    "TLE_LINE1": "1 58534U 23192D   25315.19237121  .00003579  00000+0  13292-3 0  9997",
    "TLE_LINE2": "2 58534  53.1608 243.1824 0001570  90.4348 269.6833 15.30199136107985",
    "COMMENT": "Grouped by shell and plane from TLE"
  },
  {
    "OBJECT_NAME": "STARLINK-31063",
    "OBJECT_ID": "23192S",
    "EPOCH": "2025-11-11T05:30:01.132992",
    "MEAN_MOTION": 15.3020065,
    "ECCENTRICITY": 0.0001139,
    "INCLINATION": 53.1613,
    "RA_OF_ASC_NODE": 242.6358,
    "ARG_OF_PERICENTER": 85.4029,
    "MEAN_ANOMALY": 274.7102,
    "EPHEMERIS_TYPE": 0,
    "CLASSIFICATION_TYPE": "U",
    "NORAD_CAT_ID": 58547,
    "ELEMENT_SET_NO": 999,
    "REV_AT_EPOCH": 10799,
    "BSTAR": 9.493300000000001e-05,
    "MEAN_MOTION_DOT": 2.454e-05,
    "MEAN_MOTION_DDOT": 0.0,
    "TLE_LINE1": "1 58547U 23192S   25315.22917978  .00002454  00000+0  94933-4 0  9993",
    "TLE_LINE2": "2 58547  53.1613 242.6358 0001139  85.4029 274.7102 15.30200650107993",
    "COMMENT": "Grouped by shell and plane from TLE"
  },
  {
    "OBJECT_NAME": "STARLINK-30999",
    "OBJECT_ID": "23192W",
    "EPOCH": "2025-11-11T01:48:37.719648",
    "MEAN_MOTION": 15.30193558,
    "ECCENTRICITY": 0.0001347,
    "INCLINATION": 53.1595,
    "RA_OF_ASC_NODE": 243.7273,
    "ARG_OF_PERICENTER": 95.7316,
    "MEAN_ANOMALY": 264.3839,
    "EPHEMERIS_TYPE": 0,
    "CLASSIFICATION_TYPE": "U",
    "NORAD_CAT_ID": 58551,
    "ELEMENT_SET_NO": 999,
    "REV_AT_EPOCH": 10796,
    "BSTAR": 0.0,
    "MEAN_MOTION_DOT": -7e-06,
    "MEAN_MOTION_DDOT": 0.0,
    "TLE_LINE1": "1 58551U 23192W   25315.07543657 -.00000700  00000+0 -11525-4 0  9990",
    "TLE_LINE2": "2 58551  53.1595 243.7273 0001347  95.7316 264.3839 15.30193558107966",
    "COMMENT": "Grouped by shell and plane from TLE"
  },
  {
    "OBJECT_NAME": "STARLINK-31526",
    "OBJECT_ID": "24036U",
    "EPOCH": "2025-11-11T04:06:40.318272",
    "MEAN_MOTION": 15.30199344,
    "ECCENTRICITY": 0.0001281,
    "INCLINATION": 53.1619,
    "RA_OF_ASC_NODE": 243.2952,
    "ARG_OF_PERICENTER": 89.7487,
    "MEAN_ANOMALY": 270.3661,
    "EPHEMERIS_TYPE": 0,
    "CLASSIFICATION_TYPE": "U",
    "NORAD_CAT_ID": 59016,
    "ELEMENT_SET_NO": 999,
    "REV_AT_EPOCH": 9753,
    "BSTAR": 7.326500000000001e-05,
    "MEAN_MOTION_DOT": 1.811e-05,
    "MEAN_MOTION_DDOT": 0.0,
    "TLE_LINE1": "1 59016U 24036U   25315.17129998  .00001811  00000+0  73265-4 0  9995",
    "TLE_LINE2": "2 59016  53.1619 243.2952 0001281  89.7487 270.3661 15.30199344 97538",
    "COMMENT": "Grouped by shell and plane from TLE"
  },
  {
    "OBJECT_NAME": "STARLINK-31290",
    "OBJECT_ID": "24041M",
    "EPOCH": "2025-11-11T04:35:19.605696",
    "MEAN_MOTION": 15.27597463,
    "ECCENTRICITY": 6.78e-05,
    "INCLINATION": 43.0025,
    "RA_OF_ASC_NODE": 245.6526,
    "ARG_OF_PERICENTER": 317.162,
    "MEAN_ANOMALY": 42.9179,
    "EPHEMERIS_TYPE": 0,
    "CLASSIFICATION_TYPE": "U",
    "NORAD_CAT_ID": 59085,
    "ELEMENT_SET_NO": 999,
    "REV_AT_EPOCH": 9645,
    "BSTAR": 6.689300000000001e-05,
    "MEAN_MOTION_DOT": 1.58e-05,
    "MEAN_MOTION_DDOT": 0.0,
    "TLE_LINE1": "1 59085U 24041M   25315.19119914  .00001580  00000+0  66893-4 0  9998",
    "TLE_LINE2": "2 59085  43.0025 245.6526 0000678 317.1620  42.9179 15.27597463 96459",
    "COMMENT": "Grouped by shell and plane from TLE"
  },
  {
    "OBJECT_NAME": "STARLINK-31512",
    "OBJECT_ID": "24071S",
    "EPOCH": "2025-11-11T03:50:15.433440",
    "MEAN_MOTION": 15.27586081,
    "ECCENTRICITY": 0.000113,
    "INCLINATION": 43.0018,
    "RA_OF_ASC_NODE": 248.9926,
    "ARG_OF_PERICENTER": 283.6365,
    "MEAN_ANOMALY": 76.4361,
    "EPHEMERIS_TYPE": 0,
    "CLASSIFICATION_TYPE": "U",
    "NORAD_CAT_ID": 59500,
    "ELEMENT_SET_NO": 999,
    "REV_AT_EPOCH": 9053,
    "BSTAR": 0.00018115,
    "MEAN_MOTION_DOT": 4.727e-05,
    "MEAN_MOTION_DDOT": 0.0,
    "TLE_LINE1": "1 59500U 24071S   25315.15990085  .00004727  00000+0  18115-3 0  9994",
    "TLE_LINE2": "2 59500  43.0018 248.9926 0001130 283.6365  76.4361 15.27586081 90532",
    "COMMENT": "Grouped by shell and plane from TLE"
  },
  {
    "OBJECT_NAME": "STARLINK-31453",
    "OBJECT_ID": "24073M",
    "EPOCH": "2025-11-11T05:57:47.857248",
    "MEAN_MOTION": 15.27583198,
    "ECCENTRICITY": 7.09e-05,
    "INCLINATION": 43.0003,
    "RA_OF_ASC_NODE": 249.1272,
    "ARG_OF_PERICENTER": 269.8906,
    "MEAN_ANOMALY": 90.1864,
    "EPHEMERIS_TYPE": 0,
    "CLASSIFICATION_TYPE": "U",
    "NORAD_CAT_ID": 59522,
    "ELEMENT_SET_NO": 999,
    "REV_AT_EPOCH": 8826,
    "BSTAR": 0.00013822999999999998,
    "MEAN_MOTION_DOT": 3.544e-05,
    "MEAN_MOTION_DDOT": 0.0,
    "TLE_LINE1": "1 59522U 24073M   25315.24847057  .00003544  00000+0  13823-3 0  9997",
    "TLE_LINE2": "2 59522  43.0003 249.1272 0000709 269.8906  90.1864 15.27583198 88269",
    "COMMENT": "Grouped by shell and plane from TLE"
  },
  {
    "OBJECT_NAME": "STARLINK-32138",
    "OBJECT_ID": "24131A",
    "EPOCH": "2025-11-11T04:30:53.034048",
    "MEAN_MOTION": 15.30204136,
    "ECCENTRICITY": 0.0001312,
    "INCLINATION": 53.1621,
    "RA_OF_ASC_NODE": 242.9916,
    "ARG_OF_PERICENTER": 101.8692,
    "MEAN_ANOMALY": 258.2456,
    "EPHEMERIS_TYPE": 0,
    "CLASSIFICATION_TYPE": "U",
    "NORAD_CAT_ID": 60255,
    "ELEMENT_SET_NO": 999,
    "REV_AT_EPOCH": 7387,
    "BSTAR": 5.77e-05,
    "MEAN_MOTION_DOT": 1.35e-05,
    "MEAN_MOTION_DDOT": 0.0,
    "TLE_LINE1": "1 60255U 24131A   25315.18811382  .00001350  00000+0  57700-4 0  9998",
    "TLE_LINE2": "2 60255  53.1621 242.9916 0001312 101.8692 258.2456 15.30204136 73877",
    "COMMENT": "Grouped by shell and plane from TLE"
  },
  {
    "OBJECT_NAME": "STARLINK-32212",
    "OBJECT_ID": "24131B",
    "EPOCH": "2025-11-11T01:41:02.386464",
    "MEAN_MOTION": 15.30178326,
    "ECCENTRICITY": 0.0001522,
    "INCLINATION": 53.1626,
    "RA_OF_ASC_NODE": 243.6881,
    "ARG_OF_PERICENTER": 101.0064,
    "MEAN_ANOMALY": 259.1109,
    "EPHEMERIS_TYPE": 0,
    "CLASSIFICATION_TYPE": "U",
    "NORAD_CAT_ID": 60256,
    "ELEMENT_SET_NO": 999,
    "REV_AT_EPOCH": 7355,
    "BSTAR": 8.0144e-06,
    "MEAN_MOTION_DOT": -1.22e-06,
    "MEAN_MOTION_DDOT": 0.0,
    "TLE_LINE1": "1 60256U 24131B   25315.07016651 -.00000122  00000+0  80144-5 0  9999",
    "TLE_LINE2": "2 60256  53.1626 243.6881 0001522 101.0064 259.1109 15.30178326 73551",
    "COMMENT": "Grouped by shell and plane from TLE"
  },
  {
    "OBJECT_NAME": "STARLINK-32166",
    "OBJECT_ID": "24131C",
    "EPOCH": "2025-11-11T04:58:14.922624",
    "MEAN_MOTION": 15.30192274,
    "ECCENTRICITY": 0.0001433,
    "INCLINATION": 53.1612,
    "RA_OF_ASC_NODE": 243.1097,
    "ARG_OF_PERICENTER": 83.6898,
    "MEAN_ANOMALY": 276.4266,
    "EPHEMERIS_TYPE": 0,
    "CLASSIFICATION_TYPE": "U",
    "NORAD_CAT_ID": 60257,
    "ELEMENT_SET_NO": 999,
    "REV_AT_EPOCH": 7357,
    "BSTAR": 2.6189000000000003e-05,
    "MEAN_MOTION_DOT": 4.16e-06,
    "MEAN_MOTION_DDOT": 0.0,
    "TLE_LINE1": "1 60257U 24131C   25315.20711716  .00000416  00000+0  26189-4 0  9992",
    "TLE_LINE2": "2 60257  53.1612 243.1097 0001433  83.6898 276.4266 15.30192274 73578",
    "COMMENT": "Grouped by shell and plane from TLE"
  },
  {
    "OBJECT_NAME": "STARLINK-32200",
    "OBJECT_ID": "24131D",
    "EPOCH": "2025-11-11T01:37:59.340288",
    "MEAN_MOTION": 15.30189459,
    "ECCENTRICITY": 0.000138,
    "INCLINATION": 53.1617,
    "RA_OF_ASC_NODE": 243.6651,
    "ARG_OF_PERICENTER": 108.0931,
    "MEAN_ANOMALY": 252.022,
    "EPHEMERIS_TYPE": 0,
    "CLASSIFICATION_TYPE": "U",
    "NORAD_CAT_ID": 60258,
    "ELEMENT_SET_NO": 999,
    "REV_AT_EPOCH": 7355,
    "BSTAR": 5.747600000000001e-05,
    "MEAN_MOTION_DOT": 1.343e-05,
    "MEAN_MOTION_DDOT": 0.0,
    "TLE_LINE1": "1 60258U 24131D   25315.06804792  .00001343  00000+0  57476-4 0  9997",
    "TLE_LINE2": "2 60258  53.1617 243.6651 0001380 108.0931 252.0220 15.30189459 73555",
    "COMMENT": "Grouped by shell and plane from TLE"
  },
  {
    "OBJECT_NAME": "STARLINK-32207",
    "OBJECT_ID": "24131E",
    "EPOCH": "2025-11-11T04:43:02.873856",
    "MEAN_MOTION": 15.30209235,
    "ECCENTRICITY": 0.0001327,
    "INCLINATION": 53.1622,
    "RA_OF_ASC_NODE": 243.0595,
    "ARG_OF_PERICENTER": 80.0354,
    "MEAN_ANOMALY": 280.0797,
    "EPHEMERIS_TYPE": 0,
    "CLASSIFICATION_TYPE": "U",
    "NORAD_CAT_ID": 60259,
    "ELEMENT_SET_NO": 999,
    "REV_AT_EPOCH": 7357,
    "BSTAR": 2.9526000000000003e-06,
    "MEAN_MOTION_DOT": -2.72e-06,
    "MEAN_MOTION_DDOT": 0.0,
    "TLE_LINE1": "1 60259U 24131E   25315.19656104 -.00000272  00000+0  29526-5 0  9991",
    "TLE_LINE2": "2 60259  53.1622 243.0595 0001327  80.0354 280.0797 15.30209235 73579",
    "COMMENT": "Grouped by shell and plane from TLE"
  }
]